NORAD_CAT_ID,OBJECT_NAME,OBJECT_TYPE,EPOCH,MEAN_MOTION,ECCENTRICITY,INCLINATION,RA_OF_ASC_NODE,ARG_OF_PERICENTER,MEAN_ANOMALY,BSTAR,MEAN_MOTION_DOT,MEAN_MOTION_DDOT,TLE_LINE0,TLE_LINE1,TLE_LINE2,SEMIMAJOR_AXIS,PERIOD,APOGEE,PERIGEE,DECAYED
49414.0,STARLINK-3146,PAYLOAD,2024-06-10 03:43:05,15.08840261,0.0003303,53.2164,211.1269,97.0354,263.1014,8.5754e-05,1.076e-05,0.0,0 STARLINK-3146,1 49414U 21104G   24162.15492426  .00001076  00000-0  85754-4 0  9995,2 49414  53.2164 211.1269 0003303  97.0354 263.1014 15.08840261143486,6917.88,95.438,542.03,537.46,0.0
49414.0,STARLINK-3146,PAYLOAD,2024-06-10 10:04:37,15.08850051,0.0002625,53.2159,209.939,93.2383,266.8909,0.00022611,3.313e-05,0.0,0 STARLINK-3146,1 49414U 21104G   24162.41987790  .00003313  00000-0  22611-3 0  9995,2 49414  53.2159 209.9390 0002625  93.2383 266.8909 15.08850051142420,6917.85,95.437,541.531,537.899,0.0
49414.0,STARLINK-3146,PAYLOAD,2024-06-11 03:33:52,15.08842339,0.0001447,53.2156,206.6686,94.3721,265.7436,0.0002758,4.104e-05,0.0,0 STARLINK-3146,1 49414U 21104G   24163.14852068  .00004104  00000-0  27580-3 0  9994,2 49414  53.2156 206.6686 0001447  94.3721 265.7436 15.08842339143635,6917.873,95.437,540.739,538.737,0.0
49414.0,STARLINK-3146,PAYLOAD,2024-06-11 09:55:24,15.08846212,0.000141,53.2157,205.4788,94.5647,265.5506,0.00028808,4.301e-05,0.0,0 STARLINK-3146,1 49414U 21104G   24163.41347909  .00004301  00000-0  28808-3 0  9990,2 49414  53.2157 205.4788 0001410  94.5647 265.5506 15.08846212142577,6917.861,95.437,540.702,538.751,0.0
49414.0,STARLINK-3146,PAYLOAD,2024-06-12 06:35:25,15.08832705,0.0001476,53.2169,201.6154,98.9932,261.1227,-9.9161e-05,-1.865e-05,0.0,0 STARLINK-3146,1 49414U 21104G   24164.27460409 -.00001865  00000-0 -99161-4 0  9991,2 49414  53.2169 201.6154 0001476  98.9932 261.1227 15.08832705142701,6917.903,95.438,540.789,538.747,0.0
49414.0,STARLINK-3146,PAYLOAD,2024-06-12 09:46:12,15.0883092,0.000148,53.2168,201.0202,97.9752,262.1408,-0.00011157,-2.063e-05,0.0,0 STARLINK-3146,1 49414U 21104G   24164.40708654 -.00002063  00000-0 -11157-3 0  9992,2 49414  53.2168 201.0202 0001480  97.9752 262.1408 15.08830920143825,6917.908,95.438,540.797,538.749,0.0
49414.0,STARLINK-3146,PAYLOAD,2024-06-13 11:12:22,15.0884315,0.0001354,53.2173,196.2603,94.7712,265.3435,9.0467e-05,1.152e-05,0.0,0 STARLINK-3146,1 49414U 21104G   24165.46692255  .00001152  00000-0  90467-4 0  9996,2 49414  53.2173 196.2603 0001354  94.7712 265.3435 15.08843150143983,6917.871,95.437,540.672,538.799,0.0
49414.0,STARLINK-3146,PAYLOAD,2024-06-14 11:03:09,15.08841803,0.0001219,53.2161,191.7986,91.8651,268.248,0.00013321,1.833e-05,0.0,0 STARLINK-3146,1 49414U 21104G   24166.46052442  .00001833  00000-0  13321-3 0  9994,2 49414  53.2161 191.7986 0001219  91.8651 268.2480 15.08841803143035,6917.875,95.437,540.583,538.897,0.0
49414.0,STARLINK-3146,PAYLOAD,2024-06-15 10:53:56,15.08843818,0.0001235,53.216,187.3374,92.8969,267.2164,4.8575e-05,4.85e-06,0.0,0 STARLINK-3146,1 49414U 21104G   24167.45412401  .00000485  00000-0  48575-4 0  9991,2 49414  53.2160 187.3374 0001235  92.8969 267.2164 15.08843818143189,6917.869,95.437,540.588,538.879,0.0
49414.0,STARLINK-3146,PAYLOAD,2024-06-15 18:50:51,15.08844884,0.0001239,53.2163,185.8508,92.6379,267.4755,6.7888e-05,7.93e-06,0.0,0 STARLINK-3146,1 49414U 21104G   24167.78532220  .00000793  00000-0  67888-4 0  9999,2 49414  53.2163 185.8508 0001239  92.6379 267.4755 15.08844884143239,6917.865,95.437,540.588,538.873,0.0
49414.0,STARLINK-3146,PAYLOAD,2024-06-16 07:33:56,15.08847432,0.0001232,53.216,183.472,91.3459,268.7674,8.6073e-05,1.083e-05,0.0,0 STARLINK-3146,1 49414U 21104G   24168.31523863  .00001083  00000-0  86073-4 0  9992,2 49414  53.2160 183.4720 0001232  91.3459 268.7674 15.08847432143319,6917.858,95.437,540.575,538.87,0.0
49414.0,STARLINK-3146,PAYLOAD,2024-06-17 10:35:30,15.08842417,0.0001228,53.216,178.4166,91.1414,268.9719,5.9077e-05,6.53e-06,0.0,0 STARLINK-3146,1 49414U 21104G   24169.44132229  .00000653  00000-0  59077-4 0  9995,2 49414  53.2160 178.4166 0001228  91.1414 268.9719 15.08842417143489,6917.873,95.437,540.588,538.888,0.0
49414.0,STARLINK-3146,PAYLOAD,2024-06-18 07:15:30,15.0884134,0.0001223,53.2159,174.5514,89.3141,270.7991,8.3131e-06,-1.56e-06,0.0,0 STARLINK-3146,1 49414U 21104G   24170.30244204 -.00000156  00000-0  83131-5 0  9997,2 49414  53.2159 174.5514 0001223  89.3141 270.7991 15.08841340144716,6917.876,95.437,540.587,538.895,0.0
49414.0,STARLINK-3146,PAYLOAD,2024-06-19 07:06:18,15.08838309,0.0001204,53.2157,170.091,89.1243,270.9887,5.7494e-05,6.27e-06,0.0,0 STARLINK-3146,1 49414U 21104G   24171.29604243  .00000627  00000-0  57494-4 0  9993,2 49414  53.2157 170.0910 0001204  89.1243 270.9887 15.08838309143766,6917.886,95.438,540.583,538.918,0.0
49414.0,STARLINK-3146,PAYLOAD,2024-06-19 16:38:37,15.08836842,0.0001179,53.2156,168.3067,86.9175,273.1952,4.6608e-05,4.54e-06,0.0,0 STARLINK-3146,1 49414U 21104G   24171.69348410  .00000454  00000-0  46608-4 0  9991,2 49414  53.2156 168.3067 0001179  86.9175 273.1952 15.08836842144925,6917.89,95.438,540.571,538.939,0.0
49414.0,STARLINK-3146,PAYLOAD,2024-06-19 23:00:09,15.08832825,0.0001349,53.2167,167.1197,96.1867,263.9278,1.8588e-05,8e-08,0.0,0 STARLINK-3146,1 49414U 21104G   24171.95844840  .00000008  00000-0  18588-4 0  9999,2 49414  53.2167 167.1197 0001349  96.1867 263.9278 15.08832825143865,6917.902,95.438,540.701,538.834,0.0
49414.0,STARLINK-3146,PAYLOAD,2024-06-20 03:46:19,15.08828163,0.0001349,53.217,166.2266,92.3884,267.7262,-3.5167e-05,-8.47e-06,0.0,0 STARLINK-3146,1 49414U 21104G   24172.15717458 -.00000847  00000-0 -35167-4 0  9991,2 49414  53.2170 166.2266 0001349  92.3884 267.7262 15.08828163144993,6917.917,95.438,540.715,538.848,0.0
49414.0,STARLINK-3146,PAYLOAD,2024-06-20 08:32:29,15.08829857,0.0001382,53.217,165.3345,91.4636,268.6515,-2.3082e-05,-6.55e-06,0.0,0 STARLINK-3146,1 49414U 21104G   24172.35589422 -.00000655  00000-0 -23082-4 0  9991,2 49414  53.2170 165.3345 0001382  91.4636 268.6515 15.08829857143927,6917.911,95.438,540.732,538.82,0.0
49414.0,STARLINK-3146,PAYLOAD,2024-06-20 22:50:57,15.08834965,0.0001399,53.2171,162.658,89.4013,270.714,2.1362e-05,5.2e-07,0.0,0 STARLINK-3146,1 49414U 21104G   24172.95205201  .00000052  00000-0  21362-4 0  9995,2 49414  53.2171 162.6580 0001399  89.4013 270.7140 15.08834965145110,6917.896,95.438,540.729,538.793,0.0
49414.0,STARLINK-3146,PAYLOAD,2024-06-21 08:23:16,15.08837202,0.0001384,53.2167,160.8736,87.8804,272.2347,3.5833e-05,2.82e-06,0.0,0 STARLINK-3146,1 49414U 21104G   24173.34949130  .00000282  00000-0  35833-4 0  9998,2 49414  53.2167 160.8736 0001384  87.8804 272.2347 15.08837202144079,6917.889,95.438,540.711,538.797,0.0
49414.0,STARLINK-3146,PAYLOAD,2024-06-22 03:27:53,15.08834545,0.0001334,53.2163,157.3047,86.557,273.5575,0.00010662,1.409e-05,0.0,0 STARLINK-3146,1 49414U 21104G   24174.14437290  .00001409  00000-0  10662-3 0  9990,2 49414  53.2163 157.3047 0001334  86.5570 273.5575 15.08834545145291,6917.897,95.438,540.685,538.839,0.0
49414.0,STARLINK-3146,PAYLOAD,2024-06-22 08:14:02,15.08839018,0.0001322,53.2161,156.4123,86.7921,273.3223,0.00011924,1.61e-05,0.0,0 STARLINK-3146,1 49414U 21104G   24174.34309024  .00001610  00000-0  11924-3 0  9991,2 49414  53.2161 156.4123 0001322  86.7921 273.3223 15.08839018144223,6917.883,95.438,540.663,538.834,0.0
49414.0,STARLINK-3146,PAYLOAD,2024-06-23 04:54:03,15.08844709,0.0001409,53.2164,152.546,88.3282,271.7872,7.9276e-05,9.74e-06,0.0,0 STARLINK-3146,1 49414U 21104G   24175.20420775  .00000974  00000-0  79276-4 0  9991,2 49414  53.2164 152.5460 0001409  88.3282 271.7872 15.08844709145452,6917.866,95.437,540.706,538.756,0.0
49414.0,STARLINK-3146,PAYLOAD,2024-06-23 08:04:49,15.08846922,0.0001369,53.2162,151.9505,92.7574,267.3574,9.0386e-05,1.151e-05,0.0,0 STARLINK-3146,1 49414U 21104G   24175.33668523  .00001151  00000-0  90386-4 0  9993,2 49414  53.2162 151.9505 0001369  92.7574 267.3574 15.08846922144370,6917.859,95.437,540.671,538.777,0.0
49414.0,STARLINK-3146,PAYLOAD,2024-06-24 04:44:50,15.088402,0.0001531,53.2169,148.0809,80.2622,279.8543,1.2108e-05,-9.5e-07,0.0,0 STARLINK-3146,1 49414U 21104G   24176.19781143 -.00000095  00000-0  12108-4 0  9995,2 49414  53.2169 148.0809 0001531  80.2622 279.8543 15.08840200145602,6917.88,95.438,540.804,538.686,0.0
49414.0,STARLINK-3146,PAYLOAD,2024-06-24 07:55:37,15.08839196,0.0001573,53.2173,147.4878,85.5533,274.5638,3.6672e-06,-2.3e-06,0.0,0 STARLINK-3146,1 49414U 21104G   24176.33029225 -.00000230  00000-0  36672-5 0  9991,2 49414  53.2173 147.4878 0001573  85.5533 274.5638 15.08839196144520,6917.883,95.438,540.836,538.66,0.0
49414.0,STARLINK-3146,PAYLOAD,2024-06-25 03:00:14,15.08842358,0.0001573,53.2171,143.9196,99.6085,260.5085,1.3984e-05,-6.5e-07,0.0,0 STARLINK-3146,1 49414U 21104G   24177.12516783 -.00000065  00000-0  13984-4 0  9995,2 49414  53.2171 143.9196 0001573  99.6085 260.5085 15.08842358144648,6917.873,95.437,540.826,538.65,0.0
49414.0,STARLINK-3146,PAYLOAD,2024-06-26 04:26:24,15.08843711,0.0001355,53.2163,139.1647,90.054,270.0608,5.1452e-05,5.31e-06,0.0,0 STARLINK-3146,1 49414U 21104G   24178.18500654  .00000531  00000-0  51452-4 0  9991,2 49414  53.2163 139.1647 0001355  90.0540 270.0608 15.08843711145907,6917.869,95.437,540.671,538.797,0.0
49414.0,STARLINK-3146,PAYLOAD,2024-06-27 04:17:13,15.08805579,0.0001598,53.217,134.7073,100.6862,259.431,0.0003295,4.955e-05,0.0,0 STARLINK-3146,1 49414U 21104G   24179.17862400  .00004955  00000-0  32950-3 0  9996,2 49414  53.2170 134.7073 0001598 100.6862 259.4310 15.08805579146051,6917.986,95.44,540.956,538.745,0.0
49414.0,STARLINK-3146,PAYLOAD,2024-06-27 07:27:58,15.08838479,0.0001406,53.2171,134.1107,95.0265,265.0887,9.318e-06,-1.4e-06,0.0,0 STARLINK-3146,1 49414U 21104G   24179.31109430 -.00000140  00000-0  93180-5 0  9996,2 49414  53.2171 134.1107 0001406  95.0265 265.0887 15.08838479146075,6917.885,95.438,540.723,538.777,0.0
